CCSDS_OMM_VERS = 2.0
CREATION_DATE  = 
ORIGINATOR     = 

OBJECT_NAME    = CYGNUS NG-23
OBJECT_ID      = 2025-208A
CENTER_NAME    = EARTH
REF_FRAME      = TEME
TIME_SYSTEM    = UTC
MEAN_ELEMENT_THEORY = SGP/SGP4

EPOCH          = 2025-12-13T21:29:24.134208
MEAN_MOTION    = 15.49578000
ECCENTRICITY   = .00032568
INCLINATION    = 51.6304
RA_OF_ASC_NODE = 136.7564
ARG_OF_PERICENTER = 246.2023
MEAN_ANOMALY   = 113.8624

EPHEMERIS_TYPE = 0
CLASSIFICATION_TYPE = U
NORAD_CAT_ID   = 65616
ELEMENT_SET_NO = 999
REV_AT_EPOCH   = 22
BSTAR          = .22109287E-3
MEAN_MOTION_DOT = .11998E-3
MEAN_MOTION_DDOT = 0

CCSDS_OMM_VERS = 2.0
CREATION_DATE  = 
ORIGINATOR     = 

OBJECT_NAME    = DRAGONFLY
OBJECT_ID      = 1998-067XH
CENTER_NAME    = EARTH
REF_FRAME      = TEME
TIME_SYSTEM    = UTC
MEAN_ELEMENT_THEORY = SGP/SGP4

EPOCH          = 2025-12-13T16:36:27.743328
MEAN_MOTION    = 15.72310549
ECCENTRICITY   = .00068171
INCLINATION    = 51.6241
RA_OF_ASC_NODE = 130.8872
ARG_OF_PERICENTER = 284.2780
MEAN_ANOMALY   = 75.7461

EPHEMERIS_TYPE = 0
CLASSIFICATION_TYPE = U
NORAD_CAT_ID   = 65729
ELEMENT_SET_NO = 999
REV_AT_EPOCH   = 1331
BSTAR          = .13020604E-2
MEAN_MOTION_DOT = .179632E-2
MEAN_MOTION_DDOT = 0

CCSDS_OMM_VERS = 2.0
CREATION_DATE  = 
ORIGINATOR     = 

OBJECT_NAME    = 1998-067XK
OBJECT_ID      = 1998-067XK
CENTER_NAME    = EARTH
REF_FRAME      = TEME
TIME_SYSTEM    = UTC
MEAN_ELEMENT_THEORY = SGP/SGP4

EPOCH          = 2025-12-13T16:35:48.207552
MEAN_MOTION    = 15.65971562
ECCENTRICITY   = .0005022
INCLINATION    = 51.6277
RA_OF_ASC_NODE = 132.4028
ARG_OF_PERICENTER = 252.6654
MEAN_ANOMALY   = 107.3793

EPHEMERIS_TYPE = 0
CLASSIFICATION_TYPE = U
NORAD_CAT_ID   = 65731
ELEMENT_SET_NO = 999
REV_AT_EPOCH   = 1329
BSTAR          = .9945398E-3
MEAN_MOTION_DOT = .104411E-2
MEAN_MOTION_DDOT = 0

CCSDS_OMM_VERS = 2.0
CREATION_DATE  = 
ORIGINATOR     = 

OBJECT_NAME    = RSP-03
OBJECT_ID      = 1998-067XL
CENTER_NAME    = EARTH
REF_FRAME      = TEME
TIME_SYSTEM    = UTC
MEAN_ELEMENT_THEORY = SGP/SGP4

EPOCH          = 2025-12-13T16:40:16.814784
MEAN_MOTION    = 15.68925685
ECCENTRICITY   = .00057642
INCLINATION    = 51.6251
RA_OF_ASC_NODE = 131.6633
ARG_OF_PERICENTER = 257.9098
MEAN_ANOMALY   = 102.1253

EPHEMERIS_TYPE = 0
CLASSIFICATION_TYPE = U
NORAD_CAT_ID   = 65732
ELEMENT_SET_NO = 999
REV_AT_EPOCH   = 1331
BSTAR          = .11602018E-2
MEAN_MOTION_DOT = .138092E-2
MEAN_MOTION_DDOT = 0

CCSDS_OMM_VERS = 2.0
CREATION_DATE  = 
ORIGINATOR     = 

OBJECT_NAME    = GHS-01
OBJECT_ID      = 1998-067XM
CENTER_NAME    = EARTH
REF_FRAME      = TEME
TIME_SYSTEM    = UTC
MEAN_ELEMENT_THEORY = SGP/SGP4

EPOCH          = 2025-12-13T15:24:20.714688
MEAN_MOTION    = 15.75321114
ECCENTRICITY   = .00073966
INCLINATION    = 51.6271
RA_OF_ASC_NODE = 130.5592
ARG_OF_PERICENTER = 286.1274
MEAN_ANOMALY   = 73.8911

EPHEMERIS_TYPE = 0
CLASSIFICATION_TYPE = U
NORAD_CAT_ID   = 65733
ELEMENT_SET_NO = 999
REV_AT_EPOCH   = 1332
BSTAR          = .14639187E-2
MEAN_MOTION_DOT = .23151E-2
MEAN_MOTION_DDOT = 0

CCSDS_OMM_VERS = 2.0
CREATION_DATE  = 
ORIGINATOR     = 

OBJECT_NAME    = YOTSUBA-KULOVER
OBJECT_ID      = 1998-067XN
CENTER_NAME    = EARTH
REF_FRAME      = TEME
TIME_SYSTEM    = UTC
MEAN_ELEMENT_THEORY = SGP/SGP4

EPOCH          = 2025-12-12T17:06:14.736384
MEAN_MOTION    = 15.59447843
ECCENTRICITY   = .00014047
INCLINATION    = 51.6283
RA_OF_ASC_NODE = 140.1142
ARG_OF_PERICENTER = 246.8378
MEAN_ANOMALY   = 113.2466

EPHEMERIS_TYPE = 0
CLASSIFICATION_TYPE = U
NORAD_CAT_ID   = 65941
ELEMENT_SET_NO = 999
REV_AT_EPOCH   = 985
BSTAR          = .10939393E-2
MEAN_MOTION_DOT = .8876E-3
MEAN_MOTION_DDOT = 0

CCSDS_OMM_VERS = 2.0
CREATION_DATE  = 
ORIGINATOR     = 

OBJECT_NAME    = BOTAN
OBJECT_ID      = 1998-067XP
CENTER_NAME    = EARTH
REF_FRAME      = TEME
TIME_SYSTEM    = UTC
MEAN_ELEMENT_THEORY = SGP/SGP4

EPOCH          = 2025-12-13T19:19:30.936288
MEAN_MOTION    = 15.63168137
ECCENTRICITY   = .00029855
INCLINATION    = 51.6273
RA_OF_ASC_NODE = 133.9097
ARG_OF_PERICENTER = 245.5023
MEAN_ANOMALY   = 114.5660

EPHEMERIS_TYPE = 0
CLASSIFICATION_TYPE = U
NORAD_CAT_ID   = 65942
ELEMENT_SET_NO = 999
REV_AT_EPOCH   = 1003
BSTAR          = .12359991E-2
MEAN_MOTION_DOT = .116317E-2
MEAN_MOTION_DDOT = 0

CCSDS_OMM_VERS = 2.0
CREATION_DATE  = 
ORIGINATOR     = 

OBJECT_NAME    = E-KAGAKU-1
OBJECT_ID      = 1998-067XQ
CENTER_NAME    = EARTH
REF_FRAME      = TEME
TIME_SYSTEM    = UTC
MEAN_ELEMENT_THEORY = SGP/SGP4

EPOCH          = 2025-12-13T16:10:25.766976
MEAN_MOTION    = 15.59600277
ECCENTRICITY   = .0001883
INCLINATION    = 51.6291
RA_OF_ASC_NODE = 135.2869
ARG_OF_PERICENTER = 210.5697
MEAN_ANOMALY   = 149.5187

EPHEMERIS_TYPE = 0
CLASSIFICATION_TYPE = U
NORAD_CAT_ID   = 65943
ELEMENT_SET_NO = 999
REV_AT_EPOCH   = 1000
BSTAR          = .85555158E-3
MEAN_MOTION_DOT = .69544E-3
MEAN_MOTION_DDOT = 0

CCSDS_OMM_VERS = 2.0
CREATION_DATE  = 
ORIGINATOR     = 

OBJECT_NAME    = HRC MONOBLOCK CAMERA
OBJECT_ID      = 1998-067XR
CENTER_NAME    = EARTH
REF_FRAME      = TEME
TIME_SYSTEM    = UTC
MEAN_ELEMENT_THEORY = SGP/SGP4

EPOCH          = 2025-12-13T22:29:30.916896
MEAN_MOTION    = 15.54245185
ECCENTRICITY   = .00031513
INCLINATION    = 51.6291
RA_OF_ASC_NODE = 135.5359
ARG_OF_PERICENTER = 189.7687
MEAN_ANOMALY   = 170.3243

EPHEMERIS_TYPE = 0
CLASSIFICATION_TYPE = U
NORAD_CAT_ID   = 66052
ELEMENT_SET_NO = 999
REV_AT_EPOCH   = 902
BSTAR          = .61222151E-3
MEAN_MOTION_DOT = .40432E-3
MEAN_MOTION_DDOT = 0

CCSDS_OMM_VERS = 2.0
CREATION_DATE  = 
ORIGINATOR     = 

OBJECT_NAME    = HTV-X1
OBJECT_ID      = 2025-241A
CENTER_NAME    = EARTH
REF_FRAME      = TEME
TIME_SYSTEM    = UTC
MEAN_ELEMENT_THEORY = SGP/SGP4

EPOCH          = 2025-12-13T21:29:24.134208
MEAN_MOTION    = 15.49578000
ECCENTRICITY   = .00032568
INCLINATION    = 51.6304
RA_OF_ASC_NODE = 136.7564
ARG_OF_PERICENTER = 246.2023
MEAN_ANOMALY   = 113.8624

EPHEMERIS_TYPE = 0
CLASSIFICATION_TYPE = U
NORAD_CAT_ID   = 66174
ELEMENT_SET_NO = 999
REV_AT_EPOCH   = 51
BSTAR          = .22109287E-3
MEAN_MOTION_DOT = .11998E-3
MEAN_MOTION_DDOT = 0

CCSDS_OMM_VERS = 2.0
CREATION_DATE  = 
ORIGINATOR     = 

OBJECT_NAME    = SZ-21 MODULE
OBJECT_ID      = 2025-246C
CENTER_NAME    = EARTH
REF_FRAME      = TEME
TIME_SYSTEM    = UTC
MEAN_ELEMENT_THEORY = SGP/SGP4

EPOCH          = 2025-12-13T05:48:56.217312
MEAN_MOTION    = 15.62521016
ECCENTRICITY   = .00062862
INCLINATION    = 41.4775
RA_OF_ASC_NODE = 12.9802
ARG_OF_PERICENTER = 263.0797
MEAN_ANOMALY   = 96.9328

EPHEMERIS_TYPE = 0
CLASSIFICATION_TYPE = U
NORAD_CAT_ID   = 66515
ELEMENT_SET_NO = 999
REV_AT_EPOCH   = 452
BSTAR          = .43386364E-3
MEAN_MOTION_DOT = .39667E-3
MEAN_MOTION_DDOT = 0

CCSDS_OMM_VERS = 2.0
CREATION_DATE  = 
ORIGINATOR     = 

OBJECT_NAME    = SHENZHOU-22
OBJECT_ID      = 2025-272A
CENTER_NAME    = EARTH
REF_FRAME      = TEME
TIME_SYSTEM    = UTC
MEAN_ELEMENT_THEORY = SGP/SGP4

EPOCH          = 2025-12-13T19:17:07.421568
MEAN_MOTION    = 15.59230309
ECCENTRICITY   = .00080892
INCLINATION    = 41.4685
RA_OF_ASC_NODE = 10.2494
ARG_OF_PERICENTER = 39.7422
MEAN_ANOMALY   = 320.4007

EPHEMERIS_TYPE = 0
CLASSIFICATION_TYPE = U
NORAD_CAT_ID   = 66645
ELEMENT_SET_NO = 999
REV_AT_EPOCH   = 26357
BSTAR          = .31564739E-3
MEAN_MOTION_DOT = .25274E-3
MEAN_MOTION_DDOT = 0

